{"type": "FeatureCollection", "features": [ {"type": "Feature", "properties": {"norad_id": 66877, "name": "ZQ-3 R/B", "group": "last-30-days", "lat": 25.722247887336795, "lon": -164.73976786703042, "alt_km": 545.2623769469028, "timestamp": "2025-12-18T23:35:47.782597+00:00", "meta": {"OBJECT_NAME": "ZQ-3 R/B", "OBJECT_ID": "2025-282A", "EPOCH": "2025-12-18T13:04:35.556672", "MEAN_MOTION": 14.71428888, "ECCENTRICITY": 0.07295556, "INCLINATION": 56.9497, "RA_OF_ASC_NODE": 35.2499, "ARG_OF_PERICENTER": 230.1117, "MEAN_ANOMALY": 123.3554, "EPHEMERIS_TYPE": 0, "CLASSIFICATION_TYPE": "U", "NORAD_CAT_ID": 66877, "ELEMENT_SET_NO": 999, "REV_AT_EPOCH": 224, "BSTAR": 0.00019741773, "MEAN_MOTION_DOT": 0.01064331, "MEAN_MOTION_DDOT": 7.686569e-06}, "tle": {"line1": "1 66877U 25282A   25352.54485598  .01064331  76866-5  19742-3 0  9990", "line2": "2 66877  56.9497  35.2499 0729555 230.1117 123.3554 14.71428888  2248"}}, "geometry": {"type": "Point", "coordinates": [-164.73976786703042, 25.722247887336795]}}, {"type": "Feature", "properties": {"norad_id": 66878, "name": "STARLINK-35866", "group": "last-30-days", "lat": -38.51478870493495, "lon": -100.90761481863923, "alt_km": 340.8899327698791, "timestamp": "2025-12-18T23:35:47.782608+00:00", "meta": {"OBJECT_NAME": "STARLINK-35866", "OBJECT_ID": "2025-283A", "EPOCH": "2025-12-18T14:00:03.000384", "MEAN_MOTION": 15.79225253, "ECCENTRICITY": 0.00012502, "INCLINATION": 53.1557, "RA_OF_ASC_NODE": 44.4512, "ARG_OF_PERICENTER": 54.0775, "MEAN_ANOMALY": 63.3568, "EPHEMERIS_TYPE": 0, "CLASSIFICATION_TYPE": "U", "NORAD_CAT_ID": 66878, "ELEMENT_SET_NO": 999, "REV_AT_EPOCH": 336, "BSTAR": -0.0077875345, "MEAN_MOTION_DOT": -0.01258833, "MEAN_MOTION_DDOT": 0}, "tle": {"line1": "1 66878U 25283A   25352.58336806 -.01258833  00000+0 -77875-2 0  9998", "line2": "2 66878  53.1557  44.4512 0001250  54.0775  63.3568 15.79225253  3363"}}, "geometry": {"type": "Point", "coordinates": [-100.90761481863923, -38.51478870493495]}}, {"type": "Feature", "properties": {"norad_id": 66879, "name": "STARLINK-35749", "group": "last-30-days", "lat": -41.362599292444095, "lon": -96.23994074395446, "alt_km": 341.4754371750096, "timestamp": "2025-12-18T23:35:47.782620+00:00", "meta": {"OBJECT_NAME": "STARLINK-35749", "OBJECT_ID": "2025-283B", "EPOCH": "2025-12-18T14:00:03.000384", "MEAN_MOTION": 15.79110015, "ECCENTRICITY": 0.00013862, "INCLINATION": 53.1553, "RA_OF_ASC_NODE": 44.4409, "ARG_OF_PERICENTER": 60.7131, "MEAN_ANOMALY": 61.4832, "EPHEMERIS_TYPE": 0, "CLASSIFICATION_TYPE": "U", "NORAD_CAT_ID": 66879, "ELEMENT_SET_NO": 999, "REV_AT_EPOCH": 336, "BSTAR": -0.0079397149, "MEAN_MOTION_DOT": -0.01274606, "MEAN_MOTION_DDOT": 0}, "tle": {"line1": "1 66879U 25283B   25352.58336806 -.01274606  00000+0 -79397-2 0  9996", "line2": "2 66879  53.1553  44.4409 0001386  60.7131  61.4832 15.79110015  3367"}}, "geometry": {"type": "Point", "coordinates": [-96.23994074395446, -41.362599292444095]}}, {"type": "Feature", "properties": {"norad_id": 66880, "name": "STARLINK-35844", "group": "last-30-days", "lat": -39.929713658399905, "lon": -98.67579623700126, "alt_km": 341.1088003143659, "timestamp": "2025-12-18T23:35:47.782633+00:00", "meta": {"OBJECT_NAME": "STARLINK-35844", "OBJECT_ID": "2025-283C", "EPOCH": "2025-12-18T14:00:03.000384", "MEAN_MOTION": 15.79176007, "ECCENTRICITY": 0.00012428, "INCLINATION": 53.1558, "RA_OF_ASC_NODE": 44.4465, "ARG_OF_PERICENTER": 55.0067, "MEAN_ANOMALY": 64.7434, "EPHEMERIS_TYPE": 0, "CLASSIFICATION_TYPE": "U", "NORAD_CAT_ID": 66880, "ELEMENT_SET_NO": 999, "REV_AT_EPOCH": 336, "BSTAR": -0.0078487082, "MEAN_MOTION_DOT": -0.01265018, "MEAN_MOTION_DDOT": 0}, "tle": {"line1": "1 66880U 25283C   25352.58336806 -.01265018  00000+0 -78487-2 0  9994", "line2": "2 66880  53.1558  44.4465 0001242  55.0067  64.7434 15.79176007  3369"}}, "geometry": {"type": "Point", "coordinates": [-98.67579623700126, -39.929713658399905]}}, {"type": "Feature", "properties": {"norad_id": 66881, "name": "STARLINK-35860", "group": "last-30-days", "lat": -42.59698356597657, "lon": -93.97373823130012, "alt_km": 341.33557031936107, "timestamp": "2025-12-18T23:35:47.782644+00:00", "meta": {"OBJECT_NAME": "STARLINK-35860", "OBJECT_ID": "2025-283D", "EPOCH": "2025-12-18T14:00:03.000384", "MEAN_MOTION": 15.79105272, "ECCENTRICITY": 0.00011455, "INCLINATION": 53.1552, "RA_OF_ASC_NODE": 44.4363, "ARG_OF_PERICENTER": 87.9602, "MEAN_ANOMALY": 36.3514, "EPHEMERIS_TYPE": 0, "CLASSIFICATION_TYPE": "U", "NORAD_CAT_ID": 66881, "ELEMENT_SET_NO": 999, "REV_AT_EPOCH": 336, "BSTAR": -0.0081247704, "MEAN_MOTION_DOT": -0.01324448, "MEAN_MOTION_DDOT": 0}, "tle": {"line1": "1 66881U 25283D   25352.58336806 -.01324448  00000+0 -81248-2 0  9997", "line2": "2 66881  53.1552  44.4363 0001145  87.9602  36.3514 15.79105272  3362"}}, "geometry": {"type": "Point", "coordinates": [-93.97373823130012, -42.59698356597657]}}, {"type": "Feature", "properties": {"norad_id": 66882, "name": "STARLINK-35912", "group": "last-30-days", "lat": -43.845989089204856, "lon": -91.49084743205644, "alt_km": 341.7959692283739, "timestamp": "2025-12-18T23:35:47.782656+00:00", "meta": {"OBJECT_NAME": "STARLINK-35912", "OBJECT_ID": "2025-283E", "EPOCH": "2025-12-18T14:00:03.000384", "MEAN_MOTION": 15.79041816, "ECCENTRICITY": 0.00013738, "INCLINATION": 53.1555, "RA_OF_ASC_NODE": 44.4321, "ARG_OF_PERICENTER": 65.0875, "MEAN_ANOMALY": 61.5155, "EPHEMERIS_TYPE": 0, "CLASSIFICATION_TYPE": "U", "NORAD_CAT_ID": 66882, "ELEMENT_SET_NO": 999, "REV_AT_EPOCH": 336, "BSTAR": -0.0080590622, "MEAN_MOTION_DOT": -0.01287882, "MEAN_MOTION_DDOT": 0}, "tle": {"line1": "1 66882U 25283E   25352.58336806 -.01287882  00000+0 -80591-2 0  9998", "line2": "2 66882  53.1555  44.4321 0001373  65.0875  61.5155 15.79041816  3366"}}, "geometry": {"type": "Point", "coordinates": [-91.49084743205644, -43.845989089204856]}}, {"type": "Feature", "properties": {"norad_id": 66883, "name": "STARLINK-35947", "group": "last-30-days", "lat": -45.073724972314245, "lon": -88.82443904416016, "alt_km": 341.8128494300736, "timestamp": "2025-12-18T23:35:47.782666+00:00", "meta": {"OBJECT_NAME": "STARLINK-35947", "OBJECT_ID": "2025-283F", "EPOCH": "2025-12-18T14:00:03.000384", "MEAN_MOTION": 15.78985521, "ECCENTRICITY": 0.00010614, "INCLINATION": 53.1555, "RA_OF_ASC_NODE": 44.4273, "ARG_OF_PERICENTER": 64.6272, "MEAN_ANOMALY": 64.3344, "EPHEMERIS_TYPE": 0, "CLASSIFICATION_TYPE": "U", "NORAD_CAT_ID": 66883, "ELEMENT_SET_NO": 999, "REV_AT_EPOCH": 341, "BSTAR": -0.0081328398, "MEAN_MOTION_DOT": -0.01295104, "MEAN_MOTION_DDOT": 0}, "tle": {"line1": "1 66883U 25283F   25352.58336806 -.01295104  00000+0 -81328-2 0  9994", "line2": "2 66883  53.1555  44.4273 0001061  64.6272  64.3344 15.78985521  3419"}}, "geometry": {"type": "Point", "coordinates": [-88.82443904416016, -45.073724972314245]}}, {"type": "Feature", "properties": {"norad_id": 66884, "name": "STARLINK-36057", "group": "last-30-days", "lat": -47.305273110266924, "lon": -83.21292805492423, "alt_km": 342.2063185936413, "timestamp": "2025-12-18T23:35:47.782676+00:00", "meta": {"OBJECT_NAME": "STARLINK-36057", "OBJECT_ID": "2025-283G", "EPOCH": "2025-12-18T14:00:03.000384", "MEAN_MOTION": 15.78876538, "ECCENTRICITY": 0.00010297, "INCLINATION": 53.1554, "RA_OF_ASC_NODE": 44.4171, "ARG_OF_PERICENTER": 71.7618, "MEAN_ANOMALY": 61.8575, "EPHEMERIS_TYPE": 0, "CLASSIFICATION_TYPE": "U", "NORAD_CAT_ID": 66884, "ELEMENT_SET_NO": 999, "REV_AT_EPOCH": 336, "BSTAR": -0.0082618315, "MEAN_MOTION_DOT": -0.01331844, "MEAN_MOTION_DDOT": 0}, "tle": {"line1": "1 66884U 25283G   25352.58336806 -.01331844  00000+0 -82618-2 0  9990", "line2": "2 66884  53.1554  44.4171 0001029  71.7618  61.8575 15.78876538  3362"}}, "geometry": {"type": "Point", "coordinates": [-83.21292805492423, -47.305273110266924]}}, {"type": "Feature", "properties": {"norad_id": 66885, "name": "STARLINK-35954", "group": "last-30-days", "lat": -46.22657034809578, "lon": -86.06944140694904, "alt_km": 342.10613561473565, "timestamp": "2025-12-18T23:35:47.782686+00:00", "meta": {"OBJECT_NAME": "STARLINK-35954", "OBJECT_ID": "2025-283H", "EPOCH": "2025-12-18T14:00:03.000384", "MEAN_MOTION": 15.78932483, "ECCENTRICITY": 0.00011739, "INCLINATION": 53.1554, "RA_OF_ASC_NODE": 44.4218, "ARG_OF_PERICENTER": 66.9905, "MEAN_ANOMALY": 64.3055, "EPHEMERIS_TYPE": 0, "CLASSIFICATION_TYPE": "U", "NORAD_CAT_ID": 66885, "ELEMENT_SET_NO": 999, "REV_AT_EPOCH": 336, "BSTAR": -0.0082187226, "MEAN_MOTION_DOT": -0.01328734, "MEAN_MOTION_DDOT": 0}, "tle": {"line1": "1 66885U 25283H   25352.58336806 -.01328734  00000+0 -82187-2 0  9996", "line2": "2 66885  53.1554  44.4218 0001173  66.9905  64.3055 15.78932483  3363"}}, "geometry": {"type": "Point", "coordinates": [-86.06944140694904, -46.22657034809578]}}, {"type": "Feature", "properties": {"norad_id": 66886, "name": "STARLINK-35900", "group": "last-30-days", "lat": -48.40243514466259, "lon": -79.94941731563203, "alt_km": 342.70170528106337, "timestamp": "2025-12-18T23:35:47.782698+00:00", "meta": {"OBJECT_NAME": "STARLINK-35900", "OBJECT_ID": "2025-283J", "EPOCH": "2025-12-18T14:00:03.000384", "MEAN_MOTION": 15.7878286, "ECCENTRICITY": 0.00012275, "INCLINATION": 53.1553, "RA_OF_ASC_NODE": 44.4115, "ARG_OF_PERICENTER": 63.6259, "MEAN_ANOMALY": 72.5999, "EPHEMERIS_TYPE": 0, "CLASSIFICATION_TYPE": "U", "NORAD_CAT_ID": 66886, "ELEMENT_SET_NO": 999, "REV_AT_EPOCH": 336, "BSTAR": -0.008424343, "MEAN_MOTION_DOT": -0.01350179, "MEAN_MOTION_DDOT": 0}, "tle": {"line1": "1 66886U 25283J   25352.58336806 -.01350179  00000+0 -84243-2 0  9990", "line2": "2 66886  53.1553  44.4115 0001227  63.6259  72.5999 15.78782860  3365"}}, "geometry": {"type": "Point", "coordinates": [-79.94941731563203, -48.40243514466259]}}]}